STARLINK-2475           
1 48133U 21027AT  26068.54712537  .00014323  00000+0  49460-3 0  9995
2 48133  53.1606 165.9904 0001148 102.8051 257.3078 15.30212263272498
TEVEL2-5                
1 63214U 25052E   26068.96660006  .00021339  00000+0  71765-3 0  9991
2 63214  97.4013 325.3677 0004700  95.3936 264.7842 15.30817434 54919
